STARLINK-2022           
1 47643U 21012Z   24284.50233729  .00032767  00000+0  22072-2 0  9990
2 47643  53.0519 204.3873 0001360  73.9396 286.1743 15.06421418202617
